     2.10           G: GLONASS NAV DATA                     RINEX VERSION / TYPE
teqc  2015Jun23                         20220713 01:25:43UTCPGM / RUN BY / DATE
Linux 2.4.21-27.ELsmp|Opteron|gcc -static|Linux x86_64|=+   COMMENT
  2022     7     2    2.328306436539D-09                    CORR TO SYSTEM TIME
                                                            END OF HEADER
24 22  7  3 18 15  0.0 1.017395406961D-04 1.818989403546D-12 6.480000000000D+04
   -9.392518066406D+03-2.717685699463D+00-1.862645149231D-09 0.000000000000D+00
    1.196251074219D+04 7.036590576172D-01 2.793967723846D-09 2.000000000000D+00
   -2.047405224609D+04 1.655491828918D+00 0.000000000000D+00 0.000000000000D+00
 1 22  7  3 18 45  0.0 1.089461147785D-05 0.000000000000D+00 6.660000000000D+04
   -1.121265722656D+04 4.322996139526D-01-9.313225746155D-10 0.000000000000D+00
    1.065002197266D+04-2.744610786438D+00 2.793967723846D-09 1.000000000000D+00
   -2.028799755859D+04-1.677901268005D+00 0.000000000000D+00 0.000000000000D+00
 2 22  7  3 18 45  0.0 5.230931565166D-04 0.000000000000D+00 6.660000000000D+04
   -6.206346191406D+03 2.730913162231D-01-1.862645149231D-09 0.000000000000D+00
    2.424483251953D+04-6.186380386353D-01 2.793967723846D-09-4.000000000000D+00
   -4.723841796875D+03-3.506260871887D+00-9.313225746155D-10 0.000000000000D+00
 3 22  7  3 18 45  0.0 5.957204848528D-05 0.000000000000D+00 6.660000000000D+04
    2.519359863281D+03-1.223773956299D-01-9.313225746155D-10 0.000000000000D+00
    2.212705078125D+04 1.697991371155D+00 9.313225746155D-10 5.000000000000D+00
    1.243587939453D+04-3.012286186218D+00-1.862645149231D-09 0.000000000000D+00
14 22  7  3 18 45  0.0 2.499483525753D-05 0.000000000000D+00 6.660000000000D+04
    1.433630664062D+04-1.097920417786D+00-9.313225746155D-10 0.000000000000D+00
    1.806255468750D+04-1.021023750305D+00-0.000000000000D+00-7.000000000000D+00
    1.094357910156D+04 3.126095771790D+00-1.862645149231D-09 0.000000000000D+00
23 22  7  3 18 45  0.0-4.644691944122D-05-9.094947017729D-13 6.660000000000D+04
   -2.332437158203D+04-2.858800888062D-01-0.000000000000D+00 0.000000000000D+00
    9.918261230469D+03 3.673753738403D-01 2.793967723846D-09 3.000000000000D+00
   -2.893623535156D+03 3.581645011902D+00-9.313225746155D-10 0.000000000000D+00
24 22  7  3 18 45  0.0 1.017423346639D-04 1.818989403546D-12 6.660000000000D+04
   -1.376593115234D+04-2.107831001282D+00-9.313225746155D-10 0.000000000000D+00
    1.345081298828D+04 9.149045944214D-01 3.725290298462D-09 2.000000000000D+00
   -1.674106933594D+04 2.465290069580D+00-0.000000000000D+00 0.000000000000D+00
13 22  7  3 18 45  0.0-2.424884587526D-05-0.000000000000D+00 6.663000000000D+04
   -1.872865722656D+03-2.396710395813D+00-0.000000000000D+00 0.000000000000D+00
    1.212344824219D+04-1.907413482666D+00-0.000000000000D+00-2.000000000000D+00
    2.235529003906D+04 8.328561782837D-01-2.793967723846D-09 0.000000000000D+00
17 22  7  3 18 45  0.0 5.403375253081D-04 2.728484105319D-12 6.828000000000D+04
    4.176945312500D+03-2.974705696106D+00-9.313225746155D-10 0.000000000000D+00
    9.698298828125D+03 1.132533073425D+00 1.862645149231D-09 4.000000000000D+00
   -2.321854345703D+04-6.585597991943D-02 9.313225746155D-10 0.000000000000D+00
17 22  7  3 19 15  0.0 5.403440445662D-04 2.728484105319D-12 6.840000000000D+04
   -9.501176757812D+02-2.676408767700D+00-9.313225746155D-10 0.000000000000D+00
    1.210547851562D+04 1.515550613403D+00 2.793967723846D-09 4.000000000000D+00
   -2.243824462891D+04 9.271116256714D-01 0.000000000000D+00 0.000000000000D+00
 2 22  7  3 19 15  0.0 5.230940878391D-04 0.000000000000D+00 6.840000000000D+04
   -5.746069824219D+03 1.979761123657D-01-9.313225746155D-10 0.000000000000D+00
    2.234406201172D+04-1.479414939880D+00 3.725290298462D-09-4.000000000000D+00
   -1.076958740234D+04-3.167337417603D+00-9.313225746155D-10 0.000000000000D+00
 3 22  7  3 19 15  0.0 5.957391113043D-05 0.000000000000D+00 6.840000000000D+04
    2.564945800781D+03 1.377954483032D-01-9.313225746155D-10 0.000000000000D+00
    2.448938183594D+04 9.018173217773D-01 1.862645149231D-09 5.000000000000D+00
    6.602758300781D+03-3.426946640015D+00-1.862645149231D-09 0.000000000000D+00
14 22  7  3 19 15  0.0 2.499483525753D-05 0.000000000000D+00 6.840000000000D+04
    1.168912402344D+04-1.836727142334D+00-9.313225746155D-10 0.000000000000D+00
    1.601706640625D+04-1.207815170288D+00-0.000000000000D+00-7.000000000000D+00
    1.607579052734D+04 2.539434432983D+00-1.862645149231D-09 0.000000000000D+00
23 22  7  3 19 15  0.0-4.644971340895D-05-9.094947017729D-13 6.840000000000D+04
   -2.306959472656D+04 5.509767532349D-01 0.000000000000D+00 0.000000000000D+00
    1.027340966797D+04-1.152610778809D-02 1.862645149231D-09 3.000000000000D+00
    3.581902343750D+03 3.566654205322D+00-9.313225746155D-10 0.000000000000D+00
24 22  7  3 19 15  0.0 1.017460599542D-04 1.818989403546D-12 6.840000000000D+04
   -1.688899072266D+04-1.345822334290D+00-0.000000000000D+00 0.000000000000D+00
    1.511349462891D+04 8.897619247437D-01 3.725290298462D-09 2.000000000000D+00
   -1.171379443359D+04 3.084276199341D+00-0.000000000000D+00 0.000000000000D+00
 4 22  7  3 19 15  0.0 1.493478193879D-04 1.818989403546D-12 6.918000000000D+04
    8.995298339844D+03 1.785087585449D-02-9.313225746155D-10 0.000000000000D+00
    1.301089208984D+04 2.739455223083D+00-0.000000000000D+00 6.000000000000D+00
    2.003886425781D+04-1.789929389954D+00-1.862645149231D-09 0.000000000000D+00
 4 22  7  3 19 45  0.0 1.493506133556D-04 1.818989403546D-12 7.020000000000D+04
    9.361050292969D+03 3.615312576294D-01-9.313225746155D-10 0.000000000000D+00
    1.746722900391D+04 2.171888351440D+00 0.000000000000D+00 6.000000000000D+00
    1.608568798828D+04-2.574128150940D+00-2.793967723846D-09 0.000000000000D+00
 2 22  7  3 19 45  0.0 5.230940878391D-04 0.000000000000D+00 7.020000000000D+04
   -5.627014160156D+03-9.804344177246D-02-0.000000000000D+00 0.000000000000D+00
    1.900261035156D+04-2.201445579529D+00 3.725290298462D-09-4.000000000000D+00
   -1.597795263672D+04-2.581900596619D+00-0.000000000000D+00 0.000000000000D+00
 3 22  7  3 19 45  0.0 5.957391113043D-05 0.000000000000D+00 7.020000000000D+04
    2.875784179688D+03 1.666975021362D-01-9.313225746155D-10 0.000000000000D+00
    2.531649658203D+04 1.099014282227D-02 2.793967723846D-09 5.000000000000D+00
    2.582890625000D+02-3.576603889465D+00-1.862645149231D-09 0.000000000000D+00
14 22  7  3 19 45  0.0 2.499483525753D-05 0.000000000000D+00 7.020000000000D+04
    7.781647460938D+03-2.479986190796D+00-9.313225746155D-10 0.000000000000D+00
    1.386866259766D+04-1.139015197754D+00-0.000000000000D+00-7.000000000000D+00
    1.996775927734D+04 1.756969451904D+00-2.793967723846D-09 0.000000000000D+00
17 22  7  3 19 45  0.0 5.403496325016D-04 2.728484105319D-12 7.020000000000D+04
   -5.315459960938D+03-2.141512870789D+00-0.000000000000D+00 0.000000000000D+00
    1.503275781250D+04 1.697133064270D+00 3.725290298462D-09 4.000000000000D+00
   -1.992440722656D+04 1.847830772400D+00 0.000000000000D+00 0.000000000000D+00
23 22  7  3 19 45  0.0-4.645157605410D-05-9.094947017729D-13 7.020000000000D+04
   -2.143705273438D+04 1.228453636169D+00 0.000000000000D+00 0.000000000000D+00
    9.756359863281D+03-5.898275375366D-01 9.313225746155D-10 3.000000000000D+00
    9.780342285156D+03 3.275735855103D+00-1.862645149231D-09 0.000000000000D+00
24 22  7  3 19 45  0.0 1.017488539219D-04 1.818989403546D-12 7.020000000000D+04
   -1.858663623047D+04-5.434780120850D-01-0.000000000000D+00 0.000000000000D+00
    1.649688281250D+04 6.043815612793D-01 2.793967723846D-09 2.000000000000D+00
   -5.781163085938D+03 3.464736938477D+00-9.313225746155D-10 0.000000000000D+00
 4 22  7  3 20 15  0.0 1.493552699685D-04 1.818989403546D-12 7.200000000000D+04
    1.017728515625D+04 5.072154998779D-01-9.313225746155D-10 0.000000000000D+00
    2.071116162109D+04 1.407766342163D+00 9.313225746155D-10 6.000000000000D+00
    1.089117236328D+04-3.160220146179D+00-1.862645149231D-09 0.000000000000D+00
 2 22  7  3 20 15  0.0 5.230950191617D-04 0.000000000000D+00 7.200000000000D+04
   -6.191964355469D+03-5.479555130005D-01 0.000000000000D+00 0.000000000000D+00
    1.455929589844D+04-2.690640449524D+00 3.725290298462D-09-4.000000000000D+00
   -1.994358056641D+04-1.795583724976D+00 0.000000000000D+00 0.000000000000D+00
 3 22  7  3 20 15  0.0 5.957484245300D-05 0.000000000000D+00 7.200000000000D+04
    3.018576660156D+03-4.699707031250D-02-0.000000000000D+00 0.000000000000D+00
    2.454237109375D+04-8.575963973999D-01 3.725290298462D-09 5.000000000000D+00
   -6.106109863281D+03-3.448819160461D+00-9.313225746155D-10 0.000000000000D+00
14 22  7  3 20 15  0.0 2.499483525753D-05 0.000000000000D+00 7.200000000000D+04
    2.879439941406D+03-2.927080154419D+00-0.000000000000D+00 0.000000000000D+00
    1.204501513672D+04-8.574247360229D-01-0.000000000000D+00-7.000000000000D+00
    2.231934375000D+04 8.389577865601D-01-2.793967723846D-09 0.000000000000D+00
17 22  7  3 20 15  0.0 5.403561517596D-04 2.728484105319D-12 7.200000000000D+04
   -8.573515625000D+03-1.463846206665D+00 0.000000000000D+00 0.000000000000D+00
    1.805682324219D+04 1.616291046143D+00 3.725290298462D-09 4.000000000000D+00
   -1.587216113281D+04 2.625413894653D+00-0.000000000000D+00 0.000000000000D+00
23 22  7  3 20 15  0.0-4.645437002182D-05-9.094947017729D-13 7.200000000000D+04
   -1.879297216797D+04 1.664307594299D+00 0.000000000000D+00 0.000000000000D+00
    8.082758300781D+03-1.279460906982D+00 0.000000000000D+00 3.000000000000D+00
    1.522199755859D+04 2.731224060059D+00-1.862645149231D-09 0.000000000000D+00
24 22  7  3 20 15  0.0 1.017525792122D-04 1.818989403546D-12 7.200000000000D+04
   -1.889032226562D+04 1.847248077393D-01 0.000000000000D+00 0.000000000000D+00
    1.714532470703D+04 8.053970336914D-02 1.862645149231D-09 2.000000000000D+00
    5.981733398438D+02 3.577420234680D+00-9.313225746155D-10 0.000000000000D+00
